[{"OBJECT_NAME":"TIANMU-1 20","OBJECT_ID":"2023-208B","EPOCH":"2026-03-09T21:50:45.859200","MEAN_MOTION":15.31029249,"ECCENTRICITY":0.00061925,"INCLINATION":97.4323,"RA_OF_ASC_NODE":185.4313,"ARG_OF_PERICENTER":324.1763,"MEAN_ANOMALY":35.9062,"EPHEMERIS_TYPE":0,"CLASSIFICATION_TYPE":"U","NORAD_CAT_ID":58661,"ELEMENT_SET_NO":999,"REV_AT_EPOCH":12222,"BSTAR":0.0003681641,"MEAN_MOTION_DOT":0.00010969,"MEAN_MOTION_DDOT":0},{"OBJECT_NAME":"STARLINK-33687","OBJECT_ID":"2025-070AB","EPOCH":"2026-03-09T12:31:42.324960","MEAN_MOTION":15.27610982,"ECCENTRICITY":0.00014372,"INCLINATION":43.0025,"RA_OF_ASC_NODE":260.44,"ARG_OF_PERICENTER":266.2468,"MEAN_ANOMALY":93.822,"EPHEMERIS_TYPE":0,"CLASSIFICATION_TYPE":"U","NORAD_CAT_ID":63485,"ELEMENT_SET_NO":999,"REV_AT_EPOCH":5295,"BSTAR":0.00099376604,"MEAN_MOTION_DOT":0.00027211,"MEAN_MOTION_DDOT":0}]
